OBJECT_NAME,OBJECT_ID,EPOCH,MEAN_MOTION,ECCENTRICITY,INCLINATION,RA_OF_ASC_NODE,ARG_OF_PERICENTER,MEAN_ANOMALY,EPHEMERIS_TYPE,CLASSIFICATION_TYPE,NORAD_CAT_ID,ELEMENT_SET_NO,REV_AT_EPOCH,BSTAR,MEAN_MOTION_DOT,MEAN_MOTION_DDOT
STARLINK-36562,2026-016K,2026-05-22T03:12:30.206016,15.33457271,.00007246,97.2846,202.5715,74.2290,285.9033,0,U,67570,999,1812,.46336747E-3,.14919E-3,0
STARLINK-36578,2026-016L,2026-05-22T02:33:20.972736,15.33449547,.00010433,97.2850,202.4532,112.5495,247.5859,0,U,67571,999,1811,.45101359E-3,.14515E-3,0
STARLINK-36350,2026-016M,2026-05-22T03:51:40.181472,15.33443404,.00008424,97.2822,202.5311,84.9273,275.2066,0,U,67572,999,1812,.3965807E-3,.12749E-3,0
STARLINK-36588,2026-016N,2026-05-22T02:21:36.399744,15.33453632,.00013369,97.2860,202.4621,65.3623,294.7758,0,U,67573,999,1811,.48104984E-3,.15491E-3,0
STARLINK-36594,2026-016P,2026-05-22T03:08:35.503872,15.33453819,.00003216,97.2836,202.5713,52.5233,307.6039,0,U,67574,999,1812,.59325423E-3,.19131E-3,0
STARLINK-36400,2026-016Q,2026-05-22T03:35:59.923968,15.33442111,.00006803,97.2849,202.5488,24.1516,335.9759,0,U,67575,999,1812,.55670106E-3,.17938E-3,0
STARLINK-36591,2026-016R,2026-05-22T03:20:20.171904,15.33447649,.00010378,97.2837,202.5628,136.6723,223.4602,0,U,67576,999,1812,.69665779E-3,.22484E-3,0
STARLINK-36590,2026-016S,2026-05-22T03:39:54.635616,15.33460242,.00016196,97.2817,202.5402,91.4906,268.6523,0,U,67577,999,1812,.50221569E-3,.16181E-3,0
STARLINK-36613,2026-016T,2026-05-22T02:41:10.624992,15.33461228,.0001709,97.2851,202.4506,131.2984,228.8406,0,U,67578,999,1811,.44695313E-3,.14389E-3,0
STARLINK-36571,2026-016U,2026-05-22T03:43:49.723968,15.33457642,.00017608,97.2823,202.5376,83.2461,276.8982,0,U,67579,999,1812,.82147792E-3,.2655E-3,0
STARLINK-36612,2026-016V,2026-05-22T02:52:55.591968,15.33452898,.00012525,97.2851,202.5906,109.4925,250.6453,0,U,67580,999,1812,.52606128E-3,.16951E-3,0
STARLINK-36632,2026-016W,2026-05-22T03:28:10.120512,15.33443189,.00010903,97.2834,202.5537,89.5054,270.6313,0,U,67581,999,1812,.58291299E-3,.18789E-3,0
STARLINK-36609,2026-016X,2026-05-22T03:47:45.299616,15.33456037,.0000778,97.2839,202.5358,118.2024,241.9297,0,U,67582,999,1812,.61609618E-3,.19874E-3,0
STARLINK-36577,2026-016Y,2026-05-22T02:49:00.856128,15.33465505,.00005067,97.2854,202.5916,120.7696,239.3597,0,U,67583,999,1812,.32269303E-3,.10364E-3,0
STARLINK-36419,2026-016Z,2026-05-22T03:04:40.231488,15.33455834,.00011952,97.2837,202.5768,135.5366,224.5973,0,U,67584,999,1812,.40637114E-3,.13071E-3,0
STARLINK-36560,2026-016AA,2026-05-22T02:37:15.820032,15.33452035,.00022369,97.2804,202.4446,132.0579,228.0854,0,U,67585,999,1811,.41130633E-3,.1323E-3,0
NAVSTAR 85 (USA 581),2026-017A,2026-05-21T18:33:59.060736,2.00571612,.00227148,55.0723,89.8149,256.2585,103.4626,0,U,67588,999,43108,0,.7E-7,0
STARLINK-36641,2026-018A,2026-05-22T04:07:02.989632,15.33451610,.00011963,97.2841,207.3121,113.9415,246.1953,0,U,67589,999,1859,.54106758E-3,.17437E-3,0
STARLINK-36376,2026-018B,2026-05-22T05:13:36.481440,15.33448220,.00008766,97.2828,207.4020,17.7124,342.4149,0,U,67590,999,1860,.29297994E-3,.9396E-4,0
STARLINK-36391,2026-018C,2026-05-22T02:52:39.334944,15.33446634,.0001885,97.2847,207.2350,108.3674,251.7774,0,U,67591,999,1858,.43265359E-3,.13919E-3,0
STARLINK-36603,2026-018D,2026-05-22T03:31:48.634752,15.33449994,.00007959,97.2835,207.3474,96.0989,264.0345,0,U,67592,999,1859,.54870647E-3,.17683E-3,0
STARLINK-36634,2026-018E,2026-05-22T03:23:58.710336,15.33440516,.00008928,97.2839,207.3538,113.9969,246.1367,0,U,67593,999,1859,.64837229E-3,.20912E-3,0
STARLINK-36638,2026-018F,2026-05-22T02:44:49.413120,15.33461560,.00014122,97.2836,207.2388,95.8044,264.3360,0,U,67594,999,1858,.63625466E-3,.20532E-3,0
STARLINK-36628,2026-018G,2026-05-22T03:47:28.169088,15.33456807,.00017078,97.2803,207.3296,110.5689,249.5737,0,U,67595,999,1859,.39150921E-3,.1259E-3,0
STARLINK-36629,2026-018H,2026-05-22T03:59:13.144704,15.33443849,.00007508,97.2851,207.3215,43.0934,317.0367,0,U,67596,999,1859,.43077499E-3,.13857E-3,0
STARLINK-36384,2026-018J,2026-05-22T03:00:29.012256,15.33463093,.00010008,97.2853,207.3800,97.9127,262.2229,0,U,67597,999,1859,.69488559E-3,.22438E-3,0
STARLINK-36358,2026-018K,2026-05-22T03:51:23.130432,15.33446463,.00012985,97.2836,207.3285,98.3681,261.7709,0,U,67598,999,1859,.3517788E-3,.11299E-3,0
STARLINK-36582,2026-018L,2026-05-22T03:27:53.409888,15.33459060,.00014981,97.2828,207.3508,121.4804,238.6585,0,U,67599,999,1864,.38977151E-3,.12535E-3,0
STARLINK-36640,2026-018M,2026-05-22T03:55:18.165216,15.33442107,.00006046,97.2857,207.3259,24.9039,335.2233,0,U,67600,999,1859,.27238226E-3,.8728E-4,0
STARLINK-36635,2026-018N,2026-05-22T03:08:19.140576,15.33451601,.00004983,97.2831,207.3688,352.7888,7.3348,0,U,67601,999,1859,.58828135E-3,.18968E-3,0
