STARLINK-36562          
1 67570U 26016K   26142.13368294  .00014919  00000+0  46337-3 0  9990
2 67570  97.2846 202.5715 0000724  74.2290 285.9033 15.33457271 18122
STARLINK-36578          
1 67571U 26016L   26142.10649274  .00014515  00000+0  45101-3 0  9998
2 67571  97.2850 202.4532 0001043 112.5495 247.5859 15.33449547 18118
STARLINK-36350          
1 67572U 26016M   26142.16088173  .00012749  00000+0  39658-3 0  9997
2 67572  97.2822 202.5311 0000842  84.9273 275.2066 15.33443404 18121
STARLINK-36588          
1 67573U 26016N   26142.09833796  .00015491  00000+0  48105-3 0  9993
2 67573  97.2860 202.4621 0001336  65.3623 294.7758 15.33453632 18115
STARLINK-36594          
1 67574U 26016P   26142.13096648  .00019131  00000+0  59325-3 0  9997
2 67574  97.2836 202.5713 0000321  52.5233 307.6039 15.33453819 18124
STARLINK-36400          
1 67575U 26016Q   26142.14999912  .00017938  00000+0  55670-3 0  9997
2 67575  97.2849 202.5488 0000680  24.1516 335.9759 15.33442111 18121
STARLINK-36591          
1 67576U 26016R   26142.13912236  .00022484  00000+0  69666-3 0  9993
2 67576  97.2837 202.5628 0001037 136.6723 223.4602 15.33447649 18120
STARLINK-36590          
1 67577U 26016S   26142.15271569  .00016181  00000+0  50222-3 0  9998
2 67577  97.2817 202.5402 0001619  91.4906 268.6523 15.33460242 18123
STARLINK-36613          
1 67578U 26016T   26142.11192853  .00014389  00000+0  44695-3 0  9998
2 67578  97.2851 202.4506 0001709 131.2984 228.8406 15.33461228 18117
STARLINK-36571          
1 67579U 26016U   26142.15543662  .00026550  00000+0  82148-3 0  9999
2 67579  97.2823 202.5376 0001760  83.2461 276.8982 15.33457642 18124
STARLINK-36612          
1 67580U 26016V   26142.12008787  .00016951  00000+0  52606-3 0  9992
2 67580  97.2851 202.5906 0001252 109.4925 250.6453 15.33452898 18129
STARLINK-36632          
1 67581U 26016W   26142.14456158  .00018789  00000+0  58291-3 0  9991
2 67581  97.2834 202.5537 0001090  89.5054 270.6313 15.33443189 18122
STARLINK-36609          
1 67582U 26016X   26142.15816319  .00019874  00000+0  61610-3 0  9997
2 67582  97.2839 202.5358 0000778 118.2024 241.9297 15.33456037 18126
STARLINK-36577          
1 67583U 26016Y   26142.11737102  .00010364  00000+0  32269-3 0  9999
2 67583  97.2854 202.5916 0000506 120.7696 239.3597 15.33465505 18120
STARLINK-36419          
1 67584U 26016Z   26142.12824342  .00013071  00000+0  40637-3 0  9990
2 67584  97.2837 202.5768 0001195 135.5366 224.5973 15.33455834 18128
STARLINK-36560          
1 67585U 26016AA  26142.10921088  .00013230  00000+0  41131-3 0  9991
2 67585  97.2804 202.4446 0002236 132.0579 228.0854 15.33452035 18116
NAVSTAR 85 (USA 581)    
1 67588U 26017A   26141.77360024  .00000007  00000+0  00000+0 0  9998
2 67588  55.0723  89.8149 0022714 256.2585 103.4626  2.00571612431088
STARLINK-36641          
1 67589U 26018A   26142.17156238  .00017437  00000+0  54107-3 0  9991
2 67589  97.2841 207.3121 0001196 113.9415 246.1953 15.33451610 18597
STARLINK-36376          
1 67590U 26018B   26142.21778335  .00009396  00000+0  29298-3 0  9994
2 67590  97.2828 207.4020 0000876  17.7124 342.4149 15.33448220 18607
STARLINK-36391          
1 67591U 26018C   26142.11989971  .00013919  00000+0  43265-3 0  9990
2 67591  97.2847 207.2350 0001885 108.3674 251.7774 15.33446634 18581
STARLINK-36603          
1 67592U 26018D   26142.14709068  .00017683  00000+0  54871-3 0  9998
2 67592  97.2835 207.3474 0000795  96.0989 264.0345 15.33449994 18592
STARLINK-36634          
1 67593U 26018E   26142.14165174  .00020912  00000+0  64837-3 0  9995
2 67593  97.2839 207.3538 0000892 113.9969 246.1367 15.33440516 18599
STARLINK-36638          
1 67594U 26018F   26142.11446080  .00020532  00000+0  63625-3 0  9993
2 67594  97.2836 207.2388 0001412  95.8044 264.3360 15.33461560 18586
STARLINK-36628          
1 67595U 26018G   26142.15796492  .00012590  00000+0  39151-3 0  9995
2 67595  97.2803 207.3296 0001707 110.5689 249.5737 15.33456807 18599
STARLINK-36629          
1 67596U 26018H   26142.16612436  .00013857  00000+0  43077-3 0  9991
2 67596  97.2851 207.3215 0000750  43.0934 317.0367 15.33443849 18596
STARLINK-36384          
1 67597U 26018J   26142.12533579  .00022438  00000+0  69489-3 0  9998
2 67597  97.2853 207.3800 0001000  97.9127 262.2229 15.33463093 18591
STARLINK-36358          
1 67598U 26018K   26142.16068438  .00011299  00000+0  35178-3 0  9991
2 67598  97.2836 207.3285 0001298  98.3681 261.7709 15.33446463 18598
STARLINK-36582          
1 67599U 26018L   26142.14436817  .00012535  00000+0  38977-3 0  9994
2 67599  97.2828 207.3508 0001498 121.4804 238.6585 15.33459060 18643
STARLINK-36640          
1 67600U 26018M   26142.16340469  .00008728  00000+0  27238-3 0  9993
2 67600  97.2857 207.3259 0000604  24.9039 335.2233 15.33442107 18598
STARLINK-36635          
1 67601U 26018N   26142.13077709  .00018968  00000+0  58828-3 0  9991
2 67601  97.2831 207.3688 0000498 352.7888   7.3348 15.33451601 18595
